{
  "norad_id": 65339,
  "name": "STARLINK-34777",
  "history": [
    {
      "epoch": "2026-04-11T14:19:11.082720Z",
      "apogee_km": 476.2621767686278,
      "perigee_km": 474.19109027857667,
      "latitude_deg": 3.0045744260463664e-05,
      "longitude_deg": -0.6234248330854502,
      "height_km": 476.2496386245252,
      "semi_major_axis_km": 6853.3636335236015,
      "eccentricity": 0.0001511,
      "inclination_deg": 53.1599,
      "raan_deg": 53.9866,
      "arg_perigee_deg": 96.948,
      "mean_anomaly_deg": 263.1693,
      "mean_motion_rev_day": 15.30196127
    },
    {
      "epoch": "2026-04-13T02:22:24.639456Z",
      "apogee_km": 476.3633283669278,
      "perigee_km": 474.0485432569285,
      "latitude_deg": 3.8470987026725654e-05,
      "longitude_deg": 170.1096184165663,
      "height_km": 476.33197226769846,
      "semi_major_axis_km": 6853.342935811928,
      "eccentricity": 0.00016888,
      "inclination_deg": 53.1616,
      "raan_deg": 47.0068,
      "arg_perigee_deg": 101.3783,
      "mean_anomaly_deg": 258.7408,
      "mean_motion_rev_day": 15.30203059
    },
    {
      "epoch": "2026-04-14T12:51:34.736544Z",
      "apogee_km": 476.11147757485924,
      "perigee_km": 474.34481710717773,
      "latitude_deg": -2.958479490651852e-05,
      "longitude_deg": 4.7270024895159795,
      "height_km": 476.1548340775746,
      "semi_major_axis_km": 6853.365147341018,
      "eccentricity": 0.00012889,
      "inclination_deg": 53.1616,
      "raan_deg": 40.3326,
      "arg_perigee_deg": 91.8465,
      "mean_anomaly_deg": 268.2683,
      "mean_motion_rev_day": 15.3019562
    },
    {
      "epoch": "2026-04-15T04:32:06.709056Z",
      "apogee_km": 476.1743937077199,
      "perigee_km": 474.2512066867894,
      "latitude_deg": 2.602310296175782e-05,
      "longitude_deg": 125.9182543185796,
      "height_km": 476.21051167936537,
      "semi_major_axis_km": 6853.349800197255,
      "eccentricity": 0.00014031,
      "inclination_deg": 53.161,
      "raan_deg": 37.3008,
      "arg_perigee_deg": 95.9517,
      "mean_anomaly_deg": 264.1644,
      "mean_motion_rev_day": 15.3020076
    },
    {
      "epoch": "2026-04-16T11:53:10.652352Z",
      "apogee_km": 476.3115058506546,
      "perigee_km": 474.1280263849703,
      "latitude_deg": -1.1681854598616524e-05,
      "longitude_deg": 8.297354652604186,
      "height_km": 476.0767527045837,
      "semi_major_axis_km": 6853.356766117812,
      "eccentricity": 0.0001593,
      "inclination_deg": 53.1615,
      "raan_deg": 31.2339,
      "arg_perigee_deg": 87.8581,
      "mean_anomaly_deg": 272.2602,
      "mean_motion_rev_day": 15.30198427
    },
    {
      "epoch": "2026-04-17T11:23:58.306560Z",
      "apogee_km": 475.7267071385131,
      "perigee_km": 474.6858213635387,
      "latitude_deg": -1.206200229496991e-05,
      "longitude_deg": 10.081842330670097,
      "height_km": 476.1659971192622,
      "semi_major_axis_km": 6853.343264251025,
      "eccentricity": 7.594e-05,
      "inclination_deg": 53.1594,
      "raan_deg": 26.6826,
      "arg_perigee_deg": 96.7345,
      "mean_anomaly_deg": 263.3742,
      "mean_motion_rev_day": 15.30202949
    },
    {
      "epoch": "2026-04-18T10:54:46.079136Z",
      "apogee_km": 475.8868376429891,
      "perigee_km": 474.4092693854509,
      "latitude_deg": 3.7840261143352714e-05,
      "longitude_deg": 11.865072023458936,
      "height_km": 475.7603131830752,
      "semi_major_axis_km": 6853.28505351422,
      "eccentricity": 0.0001078,
      "inclination_deg": 53.1582,
      "raan_deg": 22.1305,
      "arg_perigee_deg": 67.2241,
      "mean_anomaly_deg": 292.8874,
      "mean_motion_rev_day": 15.30222445
    },
    {
      "epoch": "2026-04-19T10:25:34.184352Z",
      "apogee_km": 476.24107393680333,
      "perigee_km": 474.05405376678846,
      "latitude_deg": 6.991763203278256e-05,
      "longitude_deg": 13.64679748129054,
      "height_km": 475.59374079622035,
      "semi_major_axis_km": 6853.284563851796,
      "eccentricity": 0.00015956,
      "inclination_deg": 53.1607,
      "raan_deg": 17.5783,
      "arg_perigee_deg": 65.6004,
      "mean_anomaly_deg": 294.5164,
      "mean_motion_rev_day": 15.30222609
    },
    {
      "epoch": "2026-04-20T00:32:03.476544Z",
      "apogee_km": 475.910881350972,
      "perigee_km": 474.6247714012552,
      "latitude_deg": 8.436050971603764e-06,
      "longitude_deg": 158.71679952910608,
      "height_km": 476.06663912421607,
      "semi_major_axis_km": 6853.404826376113,
      "eccentricity": 9.383e-05,
      "inclination_deg": 53.1588,
      "raan_deg": 14.8498,
      "arg_perigee_deg": 81.0908,
      "mean_anomaly_deg": 279.0199,
      "mean_motion_rev_day": 15.30182331
    },
    {
      "epoch": "2026-04-21T20:25:32.397024Z",
      "apogee_km": 476.15724232108096,
      "perigee_km": 474.1643033287437,
      "latitude_deg": -1.037034138320893e-06,
      "longitude_deg": -149.95226830314684,
      "height_km": 476.11999656418647,
      "semi_major_axis_km": 6853.297772824912,
      "eccentricity": 0.0001454,
      "inclination_deg": 53.1578,
      "raan_deg": 6.3538,
      "arg_perigee_deg": 93.5459,
      "mean_anomaly_deg": 266.5708,
      "mean_motion_rev_day": 15.30218185
    },
    {
      "epoch": "2026-04-22T02:41:45.341376Z",
      "apogee_km": 475.945231260378,
      "perigee_km": 474.50684742568046,
      "latitude_deg": 4.6570377960688236e-05,
      "longitude_deg": 114.52622118040223,
      "height_km": 476.05691378047896,
      "semi_major_axis_km": 6853.363039343029,
      "eccentricity": 0.00010494,
      "inclination_deg": 53.1599,
      "raan_deg": 5.1437,
      "arg_perigee_deg": 84.6155,
      "mean_anomaly_deg": 275.4966,
      "mean_motion_rev_day": 15.30196326
    },
    {
      "epoch": "2026-04-23T02:12:33.656544Z",
      "apogee_km": 475.9809803377075,
      "perigee_km": 474.4336322602312,
      "latitude_deg": 2.2954167947211948e-05,
      "longitude_deg": 116.30902618230034,
      "height_km": 476.0480829420531,
      "semi_major_axis_km": 6853.344306298969,
      "eccentricity": 0.00011289,
      "inclination_deg": 53.1603,
      "raan_deg": 0.5935,
      "arg_perigee_deg": 85.7359,
      "mean_anomaly_deg": 274.3771,
      "mean_motion_rev_day": 15.302026
    },
    {
      "epoch": "2026-04-24T20:32:00.346848Z",
      "apogee_km": 476.3760442469511,
      "perigee_km": 474.15554174202134,
      "latitude_deg": 4.1470716898123115e-05,
      "longitude_deg": -168.48586023743016,
      "height_km": 476.5565263139354,
      "semi_major_axis_km": 6853.402792994486,
      "eccentricity": 0.000162,
      "inclination_deg": 53.1625,
      "raan_deg": 352.398,
      "arg_perigee_deg": 110.7168,
      "mean_anomaly_deg": 249.4007,
      "mean_motion_rev_day": 15.30183012
    },
    {
      "epoch": "2026-04-25T20:02:49.066368Z",
      "apogee_km": 475.87402575259875,
      "perigee_km": 474.4060538106778,
      "latitude_deg": -3.648448418867636e-05,
      "longitude_deg": -166.70168298550817,
      "height_km": 475.877497830183,
      "semi_major_axis_km": 6853.277039781638,
      "eccentricity": 0.0001071,
      "inclination_deg": 53.1625,
      "raan_deg": 347.8509,
      "arg_perigee_deg": 77.3124,
      "mean_anomaly_deg": 282.7996,
      "mean_motion_rev_day": 15.30225129
    },
    {
      "epoch": "2026-04-26T22:41:41.965440Z",
      "apogee_km": 475.93704318885284,
      "perigee_km": 474.40423240258315,
      "latitude_deg": 3.0424395833473187e-06,
      "longitude_deg": 147.32743857415488,
      "height_km": 475.93784050351223,
      "semi_major_axis_km": 6853.307637795718,
      "eccentricity": 0.00011183,
      "inclination_deg": 53.1611,
      "raan_deg": 342.6948,
      "arg_perigee_deg": 80.141,
      "mean_anomaly_deg": 279.9717,
      "mean_motion_rev_day": 15.30214881
    },
    {
      "epoch": "2026-04-27T19:04:23.598048Z",
      "apogee_km": 475.85660616851237,
      "perigee_km": 474.481832940869,
      "latitude_deg": -2.4740695592770826e-05,
      "longitude_deg": -163.12845486214894,
      "height_km": 476.29434795287807,
      "semi_major_axis_km": 6853.306219554691,
      "eccentricity": 0.0001003,
      "inclination_deg": 53.1606,
      "raan_deg": 338.7493,
      "arg_perigee_deg": 109.2432,
      "mean_anomaly_deg": 250.8677,
      "mean_motion_rev_day": 15.30215356
    }
  ]
}